[{"OBJECT_NAME":"STARLINK-2485","OBJECT_ID":"2021-027BC","EPOCH":"2026-03-09T12:05:11.221440","MEAN_MOTION":15.0639994,"ECCENTRICITY":0.00014917,"INCLINATION":53.0549,"RA_OF_ASC_NODE":152.458,"ARG_OF_PERICENTER":70.0066,"MEAN_ANOMALY":290.1084,"EPHEMERIS_TYPE":0,"CLASSIFICATION_TYPE":"U","NORAD_CAT_ID":48142,"ELEMENT_SET_NO":999,"REV_AT_EPOCH":27267,"BSTAR":-3.653178e-6,"MEAN_MOTION_DOT":-3.36e-6,"MEAN_MOTION_DDOT":0},{"OBJECT_NAME":"RAPIDEYE 4","OBJECT_ID":"2008-040E","EPOCH":"2026-03-09T22:51:05.848992","MEAN_MOTION":15.03765217,"ECCENTRICITY":0.00096509,"INCLINATION":97.4015,"RA_OF_ASC_NODE":97.7474,"ARG_OF_PERICENTER":35.5595,"MEAN_ANOMALY":324.6273,"EPHEMERIS_TYPE":0,"CLASSIFICATION_TYPE":"U","NORAD_CAT_ID":33316,"ELEMENT_SET_NO":999,"REV_AT_EPOCH":95086,"BSTAR":0.00022327721,"MEAN_MOTION_DOT":3.01e-5,"MEAN_MOTION_DDOT":0}]
